StoreID,Address,City,State,ZIP,Grade,NameExtra,Name
203,55018 Hagan Center,West Palm Beach,FL,66578,C,SNES,SNES BestBuy
933,125 Kropf Way,Milwaukee,WI,45957,C,SPKE,SPKE BestBuy
538,890 Bobwhite Street,Inglewood,CA,18653,A,TRUE,TRUE BestBuy
838,446 Shasta Trail,Miami,FL,64984,B,EPD,EPD BestBuy
162,95 Susan Park,Clearwater,FL,96875,E,PPSI,PPSI BestBuy
563,70504 Express Pass,Columbia,SC,10169,D,CNX,CNX BestBuy
147,2 Old Shore Road,Tulsa,OK,76962,F,FCE.A,FCE.A BestBuy
655,1 Sachtjen Terrace,Nashville,TN,43669,F,WIX,WIX BestBuy
494,788 South Lane,Tucson,AZ,96306,F,HGH,HGH BestBuy
908,90270 Katie Junction,Tulsa,OK,71022,D,DIN,DIN BestBuy
190,320 Barby Parkway,Reading,PA,36285,B,THLD,THLD BestBuy
928,8085 Kingsford Junction,Greenville,SC,52848,F,DLB,DLB BestBuy
357,320 Kingsford Street,San Antonio,TX,98504,D,TZOO,TZOO BestBuy
796,8 Derek Hill,Arlington,VA,57695,B,AIC,AIC BestBuy
471,302 Anhalt Pass,Long Beach,CA,99134,B,ZNWAA,ZNWAA BestBuy
408,13 Nevada Terrace,Ocala,FL,63907,B,MKL,MKL BestBuy
229,3 Eastlawn Crossing,Oklahoma City,OK,79678,E,GLOB,GLOB BestBuy
929,32 Jenifer Alley,Denver,CO,60478,B,ANDAR,ANDAR BestBuy
251,6176 Sycamore Plaza,Chicago,IL,38370,E,RCL,RCL BestBuy
170,16124 Grasskamp Pass,Chicago,IL,70505,E,MLM,MLM BestBuy
747,366 Waxwing Crossing,Flushing,NY,65482,D,SVA,SVA BestBuy
512,69 Esker Pass,Phoenix,AZ,39769,D,VAR,VAR BestBuy
477,3613 Jana Crossing,East Saint Louis,IL,67997,E,INPX,INPX BestBuy
981,60610 Bunker Hill Drive,Saint Petersburg,FL,40806,D,BFO,BFO BestBuy
277,34 Rigney Place,Arlington,VA,75776,E,GRVY,GRVY BestBuy
450,541 Mallard Trail,Orlando,FL,53143,D,DCT,DCT BestBuy
357,793 Cordelia Junction,San Antonio,TX,48758,B,HMNY,HMNY BestBuy
481,3 Gina Center,Greensboro,NC,47826,C,MSEX,MSEX BestBuy
706,046 Roxbury Crossing,Newark,NJ,57753,B,SPWH,SPWH BestBuy
743,909 Nevada Park,Shreveport,LA,80242,E,ADMS,ADMS BestBuy
321,27 Claremont Avenue,Boise,ID,68510,F,VIVO,VIVO BestBuy
973,6 Cody Junction,Muncie,IN,78403,C,OEC,OEC BestBuy
64,28478 Starling Terrace,New Haven,CT,74255,B,OTEL,OTEL BestBuy
307,651 Hoard Trail,Akron,OH,49728,B,HIG.WS,HIG.WS BestBuy
556,549 Gina Crossing,Topeka,KS,82129,C,SPB           ,SPB            BestBuy
487,1297 Pawling Street,Paterson,NJ,51568,A,BGIO,BGIO BestBuy
715,39593 Fisk Parkway,Beaverton,OR,51140,B,PEN,PEN BestBuy
398,562 Elgar Park,Richmond,VA,16837,B,INO,INO BestBuy
249,33272 Coleman Pass,Chula Vista,CA,52062,F,CIO,CIO BestBuy
974,31629 Homewood Street,Minneapolis,MN,52662,B,MSG,MSG BestBuy
245,0508 Hansons Court,Las Vegas,NV,44378,F,EMES,EMES BestBuy
341,262 Summit Plaza,Panama City,FL,99111,A,EQIX,EQIX BestBuy
273,04108 Londonderry Trail,Las Vegas,NV,25272,B,LANDP,LANDP BestBuy
909,9 Pine View Lane,Pittsburgh,PA,67950,F,VLY,VLY BestBuy
433,9691 Leroy Avenue,Atlanta,GA,42991,A,BIVV,BIVV BestBuy
751,1 Algoma Lane,Salt Lake City,UT,80035,A,KFN^,KFN^ BestBuy
254,66300 Algoma Terrace,Santa Monica,CA,24181,C,NGLS^A,NGLS^A BestBuy
500,4473 Eastlawn Trail,Dearborn,MI,61108,A,OLP,OLP BestBuy
142,927 Sutteridge Road,Chicago,IL,35828,D,ATRI,ATRI BestBuy
23,43690 Ronald Regan Terrace,San Francisco,CA,66954,B,FMS,FMS BestBuy
